X,Y,NAME,WEB_URL,LINE,ADDRESS,TRAININFO_URL,SE_ANNO_CAD_DATA,GIS_ID,OBJECTID,GLOBALID,CREATOR,CREATED,EDITOR,EDITED
-77.0181789867943,38.9760863329941,Takoma,https://www.wmata.com/rider-guide/stations/takoma.cfm,red,327 CEDAR STREET NW,https://www.wmata.com/js/nexttrain/nexttrain.html#B07|Takoma,,MetroStnPt_1,1,{1F070C50-53DD-445E-951B-35A72BF2171F},,,,
-77.0849981129191,38.9594916697664,Friendship Heights,https://www.wmata.com/rider-guide/stations/friendship-hghts.cfm,red,5337 WISCONSIN AVENUE NW,https://www.wmata.com/js/nexttrain/nexttrain.html#A08|Friendship Heights,,MetroStnPt_2,2,{43309EBD-1FA3-46DC-B31A-5799591379ED},,,,
-77.0022053584327,38.9518545652334,Fort Totten,https://www.wmata.com/rider-guide/stations/fort-totten.cfm,"red, green, yellow",550 GALLOWAY STREET NE,"https://www.wmata.com/js/nexttrain/nexttrain.html#B06,E06|Fort Totten",,MetroStnPt_3,3,{696855C6-880C-440F-A222-7A98C474CBCC},,,,
-77.0795896310761,38.9488592292971,Tenleytown-AU,https://www.wmata.com/rider-guide/stations/tenleytown.cfm,red,4501 WISCONSIN AVENUE NW,https://www.wmata.com/js/nexttrain/nexttrain.html#A07|Tenleytown-AU,,MetroStnPt_4,4,{01C225E8-B1EA-4097-AB9E-B5C405DEE54D},,,,
-77.0629884805507,38.9432730819699,Van Ness-UDC,https://www.wmata.com/rider-guide/stations/van-ness.cfm,red,4200 CONNECTICUT AVENUE NW,https://www.wmata.com/js/nexttrain/nexttrain.html#A06|Van%20Ness-UDC,,MetroStnPt_5,5,{83724B1F-71C7-4234-832F-F750D05A1924},,,,
-77.0234631914466,38.9374424240925,Georgia Ave Petworth,https://www.wmata.com/rider-guide/stations/georgia-ave.cfm,"green, yellow",3700 GEORGIA AVENUE NW,https://www.wmata.com/js/nexttrain/nexttrain.html#E05|Georgia Ave-Petworth,,MetroStnPt_6,6,{E2DB381A-6775-4E8A-96AD-3DCF0DEBEFD8},,,,
-77.0580448171052,38.9347706829249,Cleveland Park,https://www.wmata.com/rider-guide/stations/cleveland-park.cfm,red,3599 CONNECTICUT AVENUE NW,https://www.wmata.com/js/nexttrain/nexttrain.html#A05|Cleveland Park,,MetroStnPt_7,7,{03112CEC-68C9-445F-90A2-EF4D4C04BB98},,,,
-76.9945365631974,38.9332187855283,Brookland-CUA,https://www.wmata.com/rider-guide/stations/brookland.cfm,red,801 MICHIGAN AVENUE NE,https://www.wmata.com/js/nexttrain/nexttrain.html#B05|Brookland-CUA,,MetroStnPt_8,8,{59E4D2D2-0CB8-4BC1-9C0B-BF4E1E253A94},,,,
-77.0325544073219,38.9278457591984,Columbia Heights,https://www.wmata.com/rider-guide/stations/columbia-hghts.cfm,"green, yellow",3030 14TH STREET NW,https://www.wmata.com/js/nexttrain/nexttrain.html#E04|Columbia Heights,,MetroStnPt_9,9,{A0DA5D2A-9767-4D79-8A21-2EDA51C6A63E},,,,
-77.0524203164271,38.9250929274801,Woodley Park-Zoo Adams Morgan,https://www.wmata.com/rider-guide/stations/woodley-park.cfm,red,2700 24TH STREET NW,https://www.wmata.com/js/nexttrain/nexttrain.html#A04|Woodley%20Park-Zoo/Adams%20Morgan,,MetroStnPt_10,10,{1D1F4962-2157-45E5-A62C-047D2C094BA4},,,,
-76.9959391944564,38.9210674808595,Rhode Island Ave,https://www.wmata.com/rider-guide/stations/rhode-island-ave.cfm,red,919 RHODE ISLAND AVENUE NE,https://www.wmata.com/js/nexttrain/nexttrain.html#B04|Rhode%20Island%20Ave-Brentwood,,MetroStnPt_11,11,{C6FABC51-639C-431C-8815-95C7FAA9A663},,,,
-77.0274981803226,38.9170101889241,U St/African-Amer Civil War Memorial/Cardozo,https://www.wmata.com/rider-guide/stations/u-street.cfm,"green, yellow",1300 U STREET NW,https://www.wmata.com/js/nexttrain/nexttrain.html#E03|U%20Street/African-Amer%20Civil%20War%20Memorial/Cardozo,,MetroStnPt_12,12,{440FE324-5A26-4E61-9890-ABCB9AC90B3A},,,,
-77.021913986205,38.9134846603419,Shaw-Howard Univ,https://www.wmata.com/rider-guide/stations/shaw-howard.cfm,"green, yellow",1701 8TH STREET NW,https://www.wmata.com/js/nexttrain/nexttrain.html#E02|Shaw-Howard%20U,,MetroStnPt_13,13,{CF569C83-A783-4F65-94E6-329B1660CADF},,,,
-77.0434166516056,38.9096058451658,Dupont Circle,https://www.wmata.com/rider-guide/stations/dupont-circle.cfm,red,1525 20TH STREET NW,https://www.wmata.com/js/nexttrain/nexttrain.html#A03|Dupont Circle,,MetroStnPt_14,14,{AB27D1B9-C19B-49AF-9908-0EE525D5326D},,,,
-76.9352590411544,38.9081862878493,Deanwood,https://www.wmata.com/rider-guide/stations/deanwood.cfm,orange,4720 MINNESOTA AVENUE NE,https://www.wmata.com/js/nexttrain/nexttrain.html#D10|Deanwood,,MetroStnPt_15,15,{726BCB30-E738-42A4-87B7-D404177E97F9},,,,
-77.0030227264183,38.9070240007291,NoMa - Gallaudet U,https://www.wmata.com/rider-guide/stations/new-york-ave.cfm,red,200 FLORIDA AVENUE NE,https://www.wmata.com/js/nexttrain/nexttrain.html#B35|NoMa-Gallaudet U,,MetroStnPt_16,16,{2AB1650A-C393-4902-B21D-81FC16F62CA4},,,,
-77.0219166653772,38.9064446027096,Mt Vernon Sq - 7th St Convention Center,https://www.wmata.com/rider-guide/stations/mt-vernon-sq.cfm,"green, yellow",700 M STREET NW,https://www.wmata.com/js/nexttrain/nexttrain.html#E01|Mt Vernon Sq 7th St-Convention Center,,MetroStnPt_17,17,{84E8B093-BB44-4C45-B6DB-97786F69D8BD},,,,
-77.0397031175789,38.9032097327115,Farragut North,https://www.wmata.com/rider-guide/stations/farragut-north.cfm,red,1001 CONNECTICUT AVENUE NW,https://www.wmata.com/js/nexttrain/nexttrain.html#A02|Farragut North,,MetroStnPt_18,18,{58E86A11-0BAC-456D-B77D-C9E8FAA33697},,,,
-77.0336364604538,38.9013405831796,McPherson Sq,https://www.wmata.com/rider-guide/stations/mcpherson-sq.cfm,"blue, orange, silver",1400 I STREET NW,https://www.wmata.com/js/nexttrain/nexttrain.html#C02|McPherson Square,,MetroStnPt_19,19,{65A96FBB-3B4B-4A18-8DB2-968309D27812},,,,
-77.0406977056811,38.9013206802049,Farragut West,https://www.wmata.com/rider-guide/stations/farragut-west.cfm,"blue, orange, silver",900 18TH STREET NW,https://www.wmata.com/js/nexttrain/nexttrain.html#C03|Farragut West,,MetroStnPt_20,20,{547C58DA-709D-4E27-BB85-BA1DE8E91398},,,,
-77.0502800325331,38.900705794771,Foggy Bottom-GWU,https://www.wmata.com/rider-guide/stations/foggy-bottom.cfm,"blue, orange, silver",2301 I STREET NW,https://www.wmata.com/js/nexttrain/nexttrain.html#C04|Foggy Bottom-GWU,,MetroStnPt_21,21,{47FA2B04-8812-4792-BA6D-B7852C1C6726},,,,
-76.9467499947779,38.8991990121813,Minnesota Ave,https://www.wmata.com/rider-guide/stations/minnesota-ave.cfm,orange,400 MINNESOTA AVENUE NE,https://www.wmata.com/js/nexttrain/nexttrain.html#D09|Minnesota Ave,,MetroStnPt_22,22,{97E82A85-1491-4C3A-9A2D-EA2CFEF08950},,,,
-77.0219176749195,38.8983245959171,Gallery Pl-Chinatown,https://www.wmata.com/rider-guide/stations/gallery-place.cfm,"red, green, yellow",630 H STREET NW,"https://www.wmata.com/js/nexttrain/nexttrain.html#B01,F01|Gallery Pl-Chinatown",,MetroStnPt_23,23,{BA678B62-E9CF-44E7-BF7B-52694B31CA14},,,,
-77.0280802835952,38.8983222591037,Metro Center,https://www.wmata.com/rider-guide/stations/metro-center.cfm,"red, blue, orange, silver",607 13TH STREET NW,"https://www.wmata.com/js/nexttrain/nexttrain.html#A01,C01|Metro Center",,MetroStnPt_24,24,{FD98768C-31A3-4D8B-9B44-385BC5395F8E},,,,
-77.0074165721463,38.8977738257845,Union Station,https://www.wmata.com/rider-guide/stations/union-station.cfm,red,701 1ST STREET NE,https://www.wmata.com/js/nexttrain/nexttrain.html#B03|Union%20Station,,MetroStnPt_25,25,{CFFDA30A-AED7-4EA7-9D01-06CF55825FC0},,,,
-77.0166412393428,38.8960981035311,Judiciary Sq,https://www.wmata.com/rider-guide/stations/judiciary-sq.cfm,red,450 F STREET NW,https://www.wmata.com/js/nexttrain/nexttrain.html#B02|Judiciary Square,,MetroStnPt_26,26,{359D2D63-82AA-4975-8257-B3195DDE14F2},,,,
-77.0219166722109,38.8936730087045,Archives-Navy Mem'l,https://www.wmata.com/rider-guide/stations/archives.cfm,"green, yellow",701 PENNSYLVANIA AVENUE NW,https://www.wmata.com/js/nexttrain/nexttrain.html#F02|Archives-Navy Memorial-Penn Quarter,,MetroStnPt_27,27,{86D5BEBD-232C-4DFC-B801-140A64501628},,,,
-77.0281342845236,38.8931886567079,Federal Triangle,https://www.wmata.com/rider-guide/stations/federal-triangle.cfm,"blue, orange, silver",302 12TH STREET NW,https://www.wmata.com/js/nexttrain/nexttrain.html#D01|Federal Triangle,,MetroStnPt_28,28,{665ACFE8-FB9D-4B02-93BD-B22E7CF6088F},,,,
-76.9383671261511,38.8909834637487,Benning Road,https://www.wmata.com/rider-guide/stations/benning-rd.cfm,"blue, orange, silver",4500 BENNING ROAD NE,https://www.wmata.com/js/nexttrain/nexttrain.html#G01|Benning Road,,MetroStnPt_29,29,{0DA81ECE-F8EB-462E-8266-198904F00F96},,,,
-77.0280685200691,38.888026485866,Smithsonian,https://www.wmata.com/rider-guide/stations/smithsonian.cfm,"blue, orange, silver",1200 INDEPENDENCE AVENUE SW,https://www.wmata.com/js/nexttrain/nexttrain.html#D02|Smithsonian,,MetroStnPt_30,30,{32205E38-F5C9-4A51-978D-F3588662B98C},,,,
-76.9770911712712,38.8867168752895,Stadium Armory,https://www.wmata.com/rider-guide/stations/stadium-armory.cfm,"blue, orange, silver",192 19TH STREET SE,https://www.wmata.com/rider-guide/stations/stadium-armory.cfm,,MetroStnPt_31,31,{EC50EECF-AB43-4AF1-AC92-18B8BFAA87C1},,,,
-77.0158704987507,38.8850801388191,Federal Center SW,https://www.wmata.com/rider-guide/stations/federal-ctr-sw.cfm,"orange, blue, silver",401 3RD STREET SW,https://www.wmata.com/js/nexttrain/nexttrain.html#D04|Federal Center SW,,MetroStnPt_32,32,{DA4243E0-B96D-494D-B7F8-EE6917C9B749},,,,
-77.0051416983916,38.8850702849965,Capitol South,https://www.wmata.com/rider-guide/stations/capitol-south.cfm,"blue, orange, silver",355 1ST STREET SE,https://www.wmata.com/js/nexttrain/nexttrain.html#D05|Capitol South,,MetroStnPt_33,33,{348B35F9-1880-4E4C-B86D-A8C43256EBFA},,,,
-77.0219107677673,38.8848455113141,L'Enfant Plaza,https://www.wmata.com/rider-guide/stations/lenfant-plaza.cfm,"grn, yllw, orange, blue, slvr",600 MARYLAND AVENUE SW,"https://www.wmata.com/js/nexttrain/nexttrain.html#F03,D03|L'Enfant Plaza",,MetroStnPt_34,34,{7871ACA3-9773-4098-BBC8-B46215E93440},,,,
-76.9960034023081,38.8846300451652,Eastern Market,https://www.wmata.com/rider-guide/stations/eastern-market.cfm,"blue, orange, silver",701 PENNSYLVANIA AVENUE SE,https://www.wmata.com/js/nexttrain/nexttrain.html#D06|Eastern Market,,MetroStnPt_35,35,{07BD794B-4298-4E9C-9B6F-9E82C6587B68},,,,
-76.9854975917707,38.8812710576686,Potomac Ave,https://www.wmata.com/rider-guide/stations/potomac-ave.cfm,"blue, orange, silver",700 14TH STREET SE,https://www.wmata.com/js/nexttrain/nexttrain.html#D07|Potomac Ave,,MetroStnPt_36,36,{0AC6D579-02B5-4635-B34C-171A7EA85F66},,,,
-77.0050879292944,38.8764888672489,Navy Yard - Ballpark,https://www.wmata.com/rider-guide/stations/navy-yard.cfm,green,200 M STREET SE,https://www.wmata.com/js/nexttrain/nexttrain.html#F05|Navy Yard-Ballpark,,MetroStnPt_37,37,{07B7A460-483E-42E6-A275-511E32B210F5},,,,
-77.0175074905943,38.8764696487723,Waterfront,https://www.wmata.com/rider-guide/stations/waterfront.cfm,green,399 M STREET SW,https://www.wmata.com/js/nexttrain/nexttrain.html#F04|Waterfront,,MetroStnPt_38,38,{E082182B-919E-4457-A2E9-76A0FEF0D2C5},,,,
-76.9953730128321,38.8629708967766,Anacostia,https://www.wmata.com/rider-guide/stations/anacostia.cfm,green,1101 HOWARD ROAD SE,https://www.wmata.com/js/nexttrain/nexttrain.html#F06|Anacostia,,MetroStnPt_39,39,{73E9DF18-BAFD-4420-9DF8-ACC325949ABC},,,,
-76.988514203498,38.8456654796109,Congress Heights,https://www.wmata.com/rider-guide/stations/congress-hghts.cfm,green,1290 ALABAMA AVENUE SE,https://www.wmata.com/js/nexttrain/nexttrain.html#F07|Congress Heights,,MetroStnPt_40,40,{0A34BDD5-6ECD-4E16-AE93-9C83F10D67BF},,,,
